USA 252
1 39751U 14027A   20169.22222530 0.00000000  00000-0  00000-0 0    08
2 39751   2.7245 155.9004 0003771 352.9836   7.0117  1.00270000    01
CLIO
1 40208U 14055A   20180.20928624 0.00000000  00000-0  00000-0 0    06
2 40208   0.0961 120.8977 0014997 230.4577 129.3781  1.00281279    05
USA 259
1 40344U 14081A   20355.62675669 0.00000000  00000-0  00000-0 0    04
2 40344  63.3755 299.3778 7116518 271.3138  15.3799  2.00615975    04
IGS 9
1 40381U 15004A   21204.92770558 0.00000000  00000-0  00000-0 0    01
2 40381  97.3515 276.0138 0001098  25.4717 334.5281 15.27649244    09
IGS 9 r
1 40382U 15004B   21156.10101409 0.00006400  00000-0  11661-3 0    09
2 40382  96.9648 197.5063 0006518 149.7400 210.2599 15.49458963    09
IGS Opt 5
1 40538U 15015A   21209.87608238 0.00000000  00000-0  00000-0 0    01
2 40538  97.4737 281.0618 0001611 150.6796 209.3203 15.17628972    05
IGS Opt 5 r
1 40539U 15015B   21165.06020679 0.00007400  00000-0  14967-3 0    02
2 40539  97.4825 307.2287 0005641 112.1174 248.0046 15.46449102    00
Sicral 2
1 40614U 15022B   21158.33293107 0.00000000  00000-0  00000-0 0    03
2 40614   0.0240  52.7884 0001003 264.1108  95.8892  1.00270000    04
NOSS 3-7 (A)
1 40964U 15058A   21209.99149403 0.00000000  00000-0  00000-0 0    08
2 40964  63.4238 296.9035 0071372   0.6228 359.3772 13.40814925    06
NOSS 3-7 r
1 40978U 15058Q   21210.01217311 0.00000212  00000-0  17713-4 0    00
2 40978  64.7674 285.5479 0218162 300.7969  59.0356 14.81564007    02
NOSS 3-7 (R)
1 40981U 15058R   21209.99157608 0.00000000  00000-0  00000-0 0    03
2 40981  63.4343 297.1630 0064331 359.1282   0.8718 13.40814734    01
FIA Radar 4
1 41334U 16010A   21213.07944814 0.00000000  00000-0  00000-0 0    02
2 41334 123.0028  78.6889 0002815  74.3411 285.6588 13.41423713    06
Mentor 7
1 41584U 16036A   21013.37354838 0.00000000  00000-0  00000-0 0    09
2 41584   6.4972 352.3751 0047342  46.1563 314.4124  1.00270000    02
USA 269
1 41724U 16047A   21127.35863136 0.00000000  00000-0  00000-0 0    07
2 41724   2.7445 344.4107 0004142  87.5638 272.5039  1.00270000    01
Ofeq 11
1 41759U 16056A   20133.81295366 0.00000000  00000-0  00000-0 0    06
2 41759 141.8552 279.8922 0006334 285.1363  74.8629 15.34726396    09
DSN 2
1 41940U 17005A   20259.52607417 0.00000000  00000-0  00000-0 0    04
2 41940   0.0250 277.3055 0004000  57.1737 302.8575  1.00270000    00
DSN 2 r
1 41941U 17005B   20186.22457257 0.00000400  00000-0  35639-3 0    09
2 41941  20.6708 149.4842 7232345 332.3714  27.6283  2.30691539    01
NOSS 3-8 (A)
1 42058U 17011A   21176.92835498 0.00000000  00000-0  00000-0 0    07
2 42058  63.4494  97.8889 0014274  24.8921 335.1079 13.40813946    01
NOSS 3-8 (B)
1 42065U 17011B   21176.92826636 0.00000000  00000-0  00000-0 0    09
2 42065  63.4515  97.6942 0015101  19.9283 340.0717 13.40814764    00
IGS Radar 5
1 42072U 17015A   21211.84573794 0.00000000  00000-0  00000-0 0    06
2 42072  97.3711 282.5592 0001698 322.2192  37.8028 15.25980532    01
IGS Radar 5 r
1 42073U 17015B   21097.66842904 0.00002163  00000-0  78196-4 0    08
2 42073  97.0143 118.4615 0003663 150.4341 209.4158 15.28482624    05
USA 276
1 42689U 17022A   21212.82397150 0.00009000  00000-0  10479-3 0    00
2 42689  50.0011 136.5633 0006094 180.7944 179.2054 15.60949613    09
OPTSAT 3000
1 42900U 17044A   21212.81977928 0.00002500  00000-0  90806-4 0    07
2 42900  97.2369 276.6521 0019605  30.0012 329.9987 15.28142775    08
USA 278
1 42941U 17056A   21081.60768369 0.00000000  00000-0  00000-0 0    09
2 42941  63.6198  13.4234 7172194 266.6570  16.7192  2.00621900    01
USA 279
1 42949U 17066A   21013.34992077 0.00000000  00000-0  00000-0 0    09
2 42949   3.1797 330.8341 0003841 138.8534 221.1919  1.00270000    02
USA 281
1 43145U 18005A   21199.06277968 0.00000000  00000-0  00000-0 0    01
2 43145 106.0068  13.0483 0002000 195.4993 164.5007 13.48011579    03
GovSat 1
1 43178U 18013A   21158.49384931 0.00000000  00000-0  00000-0 0    07
2 43178   0.0140  95.2805 0002003 359.3812   0.6188  1.00270000    08
IGS Opt 6
1 43223U 18021A   21204.96642983 0.00000000  00000-0  00000-0 0    05
2 43223  97.3500 324.5669 0008177 298.4871  61.5127 15.27650793    04
IGS Opt 6 r
1 43224U 18021B   21211.92808506 0.00001500  00000-0  57794-4 0    07
2 43224  97.2652 309.7831 0011083 306.9373  53.0625 15.26323832    09
EAGLE
1 43340U 18036B   20173.78783517 0.00000000  00000-0  00000-0 0    04
2 43340   1.0720  93.3151 0002630  18.6158 341.3842  0.99183136    03
USA 287
1 43465U 18036G   19350.26980955 0.00000000  00000-0  00000-0 0    05
2 43465   0.5829  96.2443 0000515 331.1216  20.0587  0.99175680    01
IGS Radar 6
1 43495U 18052A   21204.97060991 0.00000000  00000-0  00000-0 0    04
2 43495  97.3728 320.7739 0002074 191.7666 168.2333 15.25982195    06
IGS Radar 6 r
1 43496U 18052B   21211.91567914 0.00002134  00000-0  77374-4 0    06
2 43496  97.2293 306.7649 0016272 311.7673  48.2429 15.28260523    04
CSO 1
1 43866U 18106A   21202.02553153 0.00000000  00000-0  00000-0 0    07
2 43866  98.6302 141.5330 0001625 293.4337  66.5662 14.26737810    09
USA 290
1 43941U 19004A   21213.03213994 0.00000600  00000-0  94431-5 0    00
2 43941  73.5818 185.6724 0007999  14.4561 345.5438 15.53434214    07
USA 294
1 45110U 20007A   21209.92751381 0.00001500  00000-0  13597-3 0    07
2 45110  69.9658 230.3519 0011277 197.6307 162.3693 14.95204398    05
USA 294 r
1 45111U 20007B   21203.89551887 0.00000000  00000-0  00000-0 0    03
2 45111  69.9845 240.4285 0020367 231.1155 128.8844 14.97192581    08
IGS Opt 7
1 45165U 20009A   21209.92836979 0.00000000  00000-0  00000-0 0    02
2 45165  97.3501 284.3081 0001997 304.4966  55.5032 15.27649659    06
IGS Opt 7 r
1 45166U 20009B   21203.89063007 0.00001200  00000-0  46358-4 0    00
2 45166  97.1435 263.9870 0015504 300.3346  59.6653 15.26178893    06
OTV 6
1 45606U 20029A   21182.84990757 0.00000000  00000-0  00000-0 0    00
2 45606  45.0420 130.6521 0006414 119.8373 240.1623 15.60030099    04
Ofeq 16
1 45860U 20044A   21170.84338071 0.00005204  00000-0  89670-4 0    06
2 45860 141.0970 334.1195 0173084 298.0402  61.9372 15.35051197    06
USA 305
1 45873U 20046A   21194.90751800 0.00001500  00000-0  12150-3 0    07
2 45873  53.9783 149.5812 0015835 104.0533 255.9466 14.99169726    03
USA 306
1 45874U 20046B   21197.92340822 0.00001500  00000-0  12196-3 0    01
2 45874  53.9710 136.6032 0005086 224.7569 135.2430 14.99116306    08
USA 307
1 45875U 20046C   21198.89435314 0.00002000  00000-0  16437-3 0    08
2 45875  53.9842 133.5277 0007587 191.2148 168.7851 14.98692244    08
USA 308
1 45876U 20046D   21194.90371053 0.00001800  00000-0  14818-3 0    04
2 45876  53.9774 150.8638 0007378 136.7772 223.2227 14.98627342    02
USA 305-308 r
1 45877U 20046E   21194.90849758 0.00000240  00000-0  20307-4 0    05
2 45877  53.9718 151.5905 0005085 155.1028 204.8971 14.97579903    07
USA 310
1 46918U 20083A   21038.63883881 0.00000000  00000-0  00000-0 0    03
2 46918  58.5275 281.1331 0006695 276.4323  83.5677  3.76163394    02
USA 310 r
1 46919U 20083B   21197.92478144 0.00000000  00000-0  00000-0 0    04
2 46919  58.7991 253.6663 0144429 128.4001 231.5999  3.86388143    03
Mentor 8
1 47237U 20095A   21158.99336761 0.00000000  00000-0  00000-0 0    03
2 47237   7.5871 304.9807 0051203 172.9604 187.1255  1.00270000    03
Mentor 8 r
1 47238U 20095B   21081.32805315 0.00000000  00000-0  00000-0 0    02
2 47238   7.7342 305.8601 0265715 335.1925  23.5533  0.95075034    00
USA 312
1 47294U 20101A   21212.99396048 0.00000800  00000-0  44592-4 0    05
2 47294  52.9958 256.4287 0007424 249.5175 110.4823 15.13066286    07
USA 313
1 47295U 20101B   21210.01987731 0.00001200  00000-0  66859-4 0    07
2 47295  52.9994 270.0088 0011734 260.7736  99.2262 15.13044995    00
CSO 2
1 47305U 20104A   21213.03187218 0.00000000  00000-0  00000-0 0    08
2 47305  97.3558 153.2662 0002002   4.8949 355.1050 15.26905588    09
USA 314
1 48247U 21032A   21210.00946843 0.00000200  00000-0  27484-4 0    07
2 48247  98.0502 322.0345 0157241 143.8683 216.1316 14.70130347    03
Prowler
1 90007U 90097E   20181.51418531 0.00000000  00000-0  00000-0 0    04
2 90007  14.8053 354.7562 0040867 234.7577 124.8618  1.00329781    02
Unknown 9O0DC5
1 90084U 09710A   20091.48347467 0.00000000  00000-0  00000-0 0    06
2 90084  18.5531 243.1375 7439350 355.1847   0.4734  0.44260590    03
Unknown 110623
1 90087U 11674A   21185.18445179 0.00000278  00000-0  00000-0 0    09
2 90087  26.7153 165.2340 7298523  50.1788 354.0307  2.00825755    02
ISON 69200
1 90093U 14576A   20325.36273960 -.00000238  00000-0 -69490-2 0    00
2 90093   3.5508 300.3310 7266403 299.4362  60.5635  2.08445950    09
ISON 37600
1 90097U 14792A   20154.20197802 0.00008046  00000-0  41060-0 0    01
2 90097   4.8700 135.1943 5523492 351.4572   8.5424  4.04496582    04
ISON 59600
1 90101U 14817A   19365.27561034 0.00000000  00000-0  00000-0 0    07
2 90101  10.4255 292.5894 7001863 183.3879 166.9186  2.42755887    08
ISON 64800
1 90103U 14820A   20022.72146155 0.00000000  00000-0  00000-0 0    08
2 90103  62.6141 291.4626 7016348 257.8593  21.8527  2.21905403    04
ISON 68600
1 90107U 14844B   20072.27649246 0.00000000  00000-0  00000-0 0    02
2 90107   6.7140  44.2914 6233160 217.8821 142.1178  2.09780463    04
ISON 54102
1 90109U 15523A   20139.85329861 0.00000000  00000-0  00000-0 0    05
2 90109   9.9240  47.4020 6742260 109.0070 330.8240  2.86246066    06
ISON 60601
1 90111U 15607A   20160.08305149 0.00000000  00000-0  00000-0 0    03
2 90111  10.8871  42.6214 6999149 318.4457   5.6469  2.37824509    07
ISON 51100
1 90116U 16697A   20180.29206391 0.00000100  00000-0  24880-2 0    07
2 90116   3.9783 314.0046 6634896 135.8229 302.3630  2.81037479    07
Unknown 050612
1 96031U 96531A   20179.66974235 0.00000000  00000-0  00000-0 0    07
2 96031   1.9154 317.2489 0224571 291.6122  65.9504  1.01888370    04
